{"type": "FeatureCollection", "features": [{"type": "Feature", "properties": {"norad_id": 50032, "name": "COSMOS 1408 DEB", "group": "cosmos-1408-debris", "lat": -12.014812526708784, "lon": -134.0443263604063, "alt_km": 424.1367814899895, "timestamp": "2025-12-26T12:57:39.543397+00:00", "meta": {"OBJECT_NAME": "COSMOS 1408 DEB", "OBJECT_ID": "1982-092RU", "EPOCH": "2025-12-25T14:23:00.706272", "MEAN_MOTION": 15.45820267, "ECCENTRICITY": 0.0016562, "INCLINATION": 82.5629, "RA_OF_ASC_NODE": 45.327, "ARG_OF_PERICENTER": 161.3291, "MEAN_ANOMALY": 198.8569, "EPHEMERIS_TYPE": 0, "CLASSIFICATION_TYPE": "U", "NORAD_CAT_ID": 50032, "ELEMENT_SET_NO": 999, "REV_AT_EPOCH": 22802, "BSTAR": 0.00010522, "MEAN_MOTION_DOT": 5.167e-05, "MEAN_MOTION_DDOT": 0}, "tle": {"line1": "1 50032U 82092RU  25359.59931373  .00005167  00000+0  10522-3 0  9996", "line2": "2 50032  82.5629  45.3270 0016562 161.3291 198.8569 15.45820267228028"}}, "geometry": {"type": "Point", "coordinates": [-134.0443263604063, -12.014812526708784]}}, {"type": "Feature", "properties": {"norad_id": 50058, "name": "COSMOS 1408 DEB", "group": "cosmos-1408-debris", "lat": -62.812419936120115, "lon": -110.47886073656919, "alt_km": 391.05648886481777, "timestamp": "2025-12-26T12:57:39.543418+00:00", "meta": {"OBJECT_NAME": "COSMOS 1408 DEB", "OBJECT_ID": "1982-092SW", "EPOCH": "2025-12-26T04:14:59.730144", "MEAN_MOTION": 15.64916769, "ECCENTRICITY": 0.00157548, "INCLINATION": 82.6117, "RA_OF_ASC_NODE": 55.2685, "ARG_OF_PERICENTER": 53.2736, "MEAN_ANOMALY": 306.9967, "EPHEMERIS_TYPE": 0, "CLASSIFICATION_TYPE": "U", "NORAD_CAT_ID": 50058, "ELEMENT_SET_NO": 999, "REV_AT_EPOCH": 23014, "BSTAR": 0.00032134543, "MEAN_MOTION_DOT": 0.00031703, "MEAN_MOTION_DDOT": 0}, "tle": {"line1": "1 50058U 82092SW  25360.17708021  .00031703  00000+0  32135-3 0  9991", "line2": "2 50058  82.6117  55.2685 0015754  53.2736 306.9967 15.64916769230148"}}, "geometry": {"type": "Point", "coordinates": [-110.47886073656919, -62.812419936120115]}}, {"type": "Feature", "properties": {"norad_id": 50404, "name": "COSMOS 1408 DEB", "group": "cosmos-1408-debris", "lat": 48.64734486354683, "lon": -150.16067971495784, "alt_km": 535.7137661603647, "timestamp": "2025-12-26T12:57:39.543431+00:00", "meta": {"OBJECT_NAME": "COSMOS 1408 DEB", "OBJECT_ID": "1982-092ADS", "EPOCH": "2025-12-25T00:18:07.841664", "MEAN_MOTION": 15.15742025, "ECCENTRICITY": 0.01667949, "INCLINATION": 82.202, "RA_OF_ASC_NODE": 202.4509, "ARG_OF_PERICENTER": 156.6613, "MEAN_ANOMALY": 204.2309, "EPHEMERIS_TYPE": 0, "CLASSIFICATION_TYPE": "U", "NORAD_CAT_ID": 50404, "ELEMENT_SET_NO": 999, "REV_AT_EPOCH": 21379, "BSTAR": 0.0033615862, "MEAN_MOTION_DOT": 0.00092417, "MEAN_MOTION_DDOT": 0}, "tle": {"line1": "1 50404U 82092ADS 25359.01259076  .00092417  00000+0  33616-2 0  9991", "line2": "2 50404  82.2020 202.4509 0166794 156.6613 204.2309 15.15742025213796"}}, "geometry": {"type": "Point", "coordinates": [-150.16067971495784, 48.64734486354683]}}, {"type": "Feature", "properties": {"norad_id": 50621, "name": "COSMOS 1408 DEB", "group": "cosmos-1408-debris", "lat": -67.04304705731965, "lon": -102.24814097550465, "alt_km": 418.80129920928266, "timestamp": "2025-12-26T12:57:39.543442+00:00", "meta": {"OBJECT_NAME": "COSMOS 1408 DEB", "OBJECT_ID": "1982-092ALR", "EPOCH": "2025-12-26T04:11:24.957888", "MEAN_MOTION": 15.573508, "ECCENTRICITY": 0.00292955, "INCLINATION": 82.5694, "RA_OF_ASC_NODE": 60.187, "ARG_OF_PERICENTER": 104.4386, "MEAN_ANOMALY": 256.0123, "EPHEMERIS_TYPE": 0, "CLASSIFICATION_TYPE": "U", "NORAD_CAT_ID": 50621, "ELEMENT_SET_NO": 999, "REV_AT_EPOCH": 22459, "BSTAR": 0.00035610621, "MEAN_MOTION_DOT": 0.00026635, "MEAN_MOTION_DDOT": 0}, "tle": {"line1": "1 50621U 82092ALR 25360.17459442  .00026635  00000+0  35611-3 0  9997", "line2": "2 50621  82.5694  60.1870 0029295 104.4386 256.0123 15.57350800224590"}}, "geometry": {"type": "Point", "coordinates": [-102.24814097550465, -67.04304705731965]}}]}